#aV2019  7  2  0  0  0.00000000     288 DD+AD WGS84 FIT  NGA
## 2060 172800.00000000   300.00000000 58666 0.0000000000000
+   31     1  2  3  5  6  7  8  9 10 11 12 13 14 15 16 17 18
+         19 20 21 22 23 24 25 26 27 28 29 30 31 32  0  0  0
+          0  0  0  0  0  0  0  0  0  0  0  0  0  0  0  0  0
+          0  0  0  0  0  0  0  0  0  0  0  0  0  0  0  0  0
+          0  0  0  0  0  0  0  0  0  0  0  0  0  0  0  0  0
++         2  2  2  2  2  2  2  2  2  2  2  2  2  2  2  2  2
++         2  2  2  2  2  2  2  2  2  2  2  2  2  2  0  0  0
++         0  0  0  0  0  0  0  0  0  0  0  0  0  0  0  0  0
++         0  0  0  0  0  0  0  0  0  0  0  0  0  0  0  0  0
++         0  0  0  0  0  0  0  0  0  0  0  0  0  0  0  0  0
%c cc cc ccc ccc cccc cccc cccc cccc ccccc ccccc ccccc ccccc
%c cc cc ccc ccc cccc cccc cccc cccc ccccc ccccc ccccc ccccc
%f  0.0000000  0.000000000  0.00000000000  0.000000000000000
%f  0.0000000  0.000000000  0.00000000000  0.000000000000000
%i    0    0    0    0      0      0      0      0         0
%i    0    0    0    0      0      0      0      0         0
/*      NGA, ST. LOUIS,MO.                                  
/*   EPHEMERIS COMPUTED FROM 2 DAYS OF DATA                 
/*   EPOCHA v5 SMOOTHER                                     
/*   G1762 IERS2010 SATAF SATAPC                            
*  2019  7  2  6 35  0.00000000
P  1 -20012.613502 -10482.622060  14032.020046    -56.122410                    
V  1  -9667.520840 -15256.418192 -24529.945769     -0.101443                    
P  2  13782.197738  22114.808946   6133.585246   -250.698865                    
V  2  -6623.979539  -3468.957523  30273.052967     -0.087652                    
P  3 -15852.634415   -243.463492  21253.171088    183.209880                    
V  3   9619.811280 -25336.814129   6959.161684     -0.017705                    
P  5   5550.502137  19688.549005 -16953.770102      0.267487                    
V  5  -9445.292416  19314.456359  19684.989304     -0.001846                    
P  6   1884.393389  20657.818434  16607.665013    161.596137                    
V  6 -14139.709256 -15589.566080  21079.800944     -0.109730                    
P  7 -15592.867009   3926.251199 -20948.558169    -56.016119                    
V  7 -15955.636434 -21979.025595   7186.257228     -0.076577                    
P  8 -21973.170919  -6163.394099 -13733.641942   -149.621161                    
V  8  16911.307955  -4442.033712 -24806.604854     -0.014851                    
P  9 -24270.245867   8523.891840  -6672.433768    379.727712                    
V  9  -8778.783174  -1627.285763  30014.222936     -0.080060                    
P 10  11205.665000 -23860.220941  -2110.524340     -2.341200                    
V 10   1658.488509   3657.689420 -31793.379290     -0.125059                    
P 11 -24568.579368  -8239.835342   4619.053318   -571.159467                    
V 11  -3857.376112  -7066.318028 -29988.201884      0.090560                    
P 12  14435.806957   3539.034198  21782.685464    227.790638                    
V 12 -12013.504344  25440.155492   3949.296388     -0.035689                    
P 13  13593.555047  12878.547685 -18964.578698    -56.497684                    
V 13 -23798.036695   1593.579121 -16016.083068      0.017187                    
P 14   2335.930166 -15429.998761  21803.529110    -73.455702                    
V 14  26912.124944  -1176.526481  -3954.420583      0.017634                    
P 15  22980.093593   4648.242368 -13108.369702   -303.511184                    
V 15 -15091.616311   6360.410935 -24314.513128      0.023995                    
P 16  -3218.676094 -19556.163048 -17649.500933    -52.775235                    
V 16  11391.770408 -19061.021043  19666.076875     -0.031475                    
P 17 -11512.552214  14116.049800  19706.386437     81.517278                    
V 17 -24109.460677   1089.304000 -15264.646424      0.066064                    
P 18 -19708.237755 -16842.691797   5573.067278     66.585500                    
V 18  -2835.074188  -7710.929397 -30477.148118      0.030546                    
P 19  -4572.089945  14522.610942  21465.575090   -299.391989                    
V 19 -27911.466934    616.899644  -6215.381543      0.048221                    
P 20  14143.603759 -19201.819591 -11628.470942    525.724193                    
V 20   -716.270538  15066.838650 -26139.270860      0.002187                    
P 21  11255.499145 -10053.148580 -21068.370980   -162.393828                    
V 21  18876.820202  21599.325362    -55.021151      0.071142                    
P 22 -13976.420521  -8403.744208  21203.605085   -725.357695                    
V 22   8595.316272 -25088.468259  -4238.206387     -0.053614                    
P 23 -26093.161291   -495.252015   6307.556325   -179.162374                    
V 23   6963.884562  -3998.904743  29741.931639      0.017783                    
P 24  21078.756626  12025.668421  11017.062692    -68.258804                    
V 24   7132.919440  12541.397870 -26622.660430     -0.005953                    
P 25  16992.647492 -10814.541029  16969.928952   -770.323419                    
V 25  -6690.320389  21071.551246  20121.552371     -0.028999                    
P 26   2816.702020 -24889.577666  -8578.961765    241.138610                    
V 26   6656.414991  -9178.827107  29054.102019      0.093716                    
P 27 -10988.035374 -12604.594757 -20819.186285   -173.437712                    
V 27  25715.992763  -4231.450667 -10778.039363     -0.104702                    
P 28 -12942.214899  23173.677779  -1315.704676    766.944006                    
V 28   -761.674303  -3091.155919 -32098.144474     -0.003739                    
P 29  26032.417921  -4129.074130  -3374.039915    161.970748                    
V 29   4359.460387   1686.369257  31904.107539     -0.096150                    
P 30  -8008.486764  14639.285201 -20600.776075   -135.022511                    
V 30 -16135.451727 -20834.457667  -8716.115419     -0.074265                    
P 31  -2453.130459 -21395.591902  15241.882017     27.141403                    
V 31  13423.103284  14391.738519  22792.935513     -0.026016                    
P 32  10238.008622 -15214.080772  19232.819982    -19.718745                    
V 32  24294.361915  -2106.197283 -14764.895016      0.156352                    
EOF
